*******************************************************************************
Ephemeris / WWW_USER Mon Jul 15 19:19:04 2024 Pasadena, USA      / Horizons    
*******************************************************************************
Target body name: (2018 YU2)                      {source: JPL#5}
Center body name: Earth (399)                     {source: DE441}
Center-site name: Gemini South Obs., Cerro Pachon
*******************************************************************************
Start time      : A.D. 2018-Oct-23 23:07:00.0000 UT      
Stop  time      : A.D. 2018-Oct-24 09:46:00.0000 UT      
Step-size       : 1 minutes
*******************************************************************************
Target pole/equ : undefined
Target radii    : undefined                                                    
Center geodetic : 289.2634, -30.2406227, 2.71233  {E-lon(deg),Lat(deg),Alt(km)}
Center cylindric: 289.2634,5517.21435,-3194.81213 {E-lon(deg),Dxy(km),Dz(km)}
Center pole/equ : ITRF93                          {East-longitude positive}
Center radii    : 6378.137, 6378.137, 6356.752 km {Equator_a, b, pole_c}       
Target primary  : Sun
Vis. interferer : MOON (R_eq= 1737.400) km        {source: DE441}
Rel. light bend : Sun                             {source: DE441}
Rel. lght bnd GM: 1.3271E+11 km^3/s^2                                          
Small-body perts: Yes                             {source: SB441-N16}
Atmos refraction: NO (AIRLESS)
RA format       : HMS
Time format     : CAL 
Calendar mode   : Mixed Julian/Gregorian
RTS-only print  : NO       
EOP file        : eop.240715.p241008                                           
EOP coverage    : DATA-BASED 1962-JAN-20 TO 2024-JUL-15. PREDICTS-> 2024-OCT-07
Units conversion: 1 au= 149597870.700 km, c= 299792.458 km/s, 1 day= 86400.0 s 
Table cut-offs 1: Elevation (-90.0deg=NO ),Airmass (>38.000=NO), Daylight (YES)
Table cut-offs 2: Solar elongation (  0.0,180.0=NO ),Local Hour Angle( 0.0=NO )
Table cut-offs 3: RA/DEC angular rate (     0.0=NO )                           
*******************************************************************************
Initial IAU76/J2000 heliocentric ecliptic osculating elements (au, days, deg.):
  EPOCH=  2458477.5 ! 2018-Dec-25.00 (TDB)         Residual RMS= .22887        
   EC= .1533598773405833   QR= .920984914841031    TP= 2458549.1486254167      
   OM= 279.4515303175068   W=  253.4059234937716   IN= 2.850769624588425       
  Equivalent ICRF heliocentric cartesian coordinates (au, au/d):
   X=-6.842297687009524E-02  Y= 9.429126817220428E-01  Z= 4.143187104036840E-01
  VX=-1.695115058702848E-02 VY=-2.997207899955317E-03 VZ=-2.239432528215744E-03
Asteroid physical parameters (km, seconds, rotational period in hours):        
   GM= n.a.                RAD= n.a.               ROTPER= n.a.                
   H= 26.5                 G= .150                 B-V= n.a.                   
                           ALBEDO= n.a.            STYP= n.a.                  
*******************************************************************************
 Date__(UT)__HR:MN     R.A._________(ICRF)_________DEC
******************************************************
$$SOE
 2018-Oct-24 05:16  m  05 49 56.033044 +32 58 42.38265
 2018-Oct-24 05:17  m  05 49 56.118587 +32 58 42.62254
 2018-Oct-24 05:18  m  05 49 56.204100 +32 58 42.86224
 2018-Oct-24 05:19  m  05 49 56.289585 +32 58 43.10176
 2018-Oct-24 05:20  m  05 49 56.375041 +32 58 43.34109
 2018-Oct-24 05:21  m  05 49 56.460468 +32 58 43.58024
 2018-Oct-24 05:22  m  05 49 56.545868 +32 58 43.81919
 2018-Oct-24 05:23  m  05 49 56.631239 +32 58 44.05795
 2018-Oct-24 05:24  m  05 49 56.716582 +32 58 44.29652
 2018-Oct-24 05:25  m  05 49 56.801896 +32 58 44.53490
 2018-Oct-24 05:26  m  05 49 56.887183 +32 58 44.77309
 2018-Oct-24 05:27  m  05 49 56.972443 +32 58 45.01108
 2018-Oct-24 05:28  m  05 49 57.057674 +32 58 45.24888
 2018-Oct-24 05:29  m  05 49 57.142878 +32 58 45.48648
 2018-Oct-24 05:30  m  05 49 57.228055 +32 58 45.72389
 2018-Oct-24 05:31  m  05 49 57.313204 +32 58 45.96109
 2018-Oct-24 05:32  m  05 49 57.398327 +32 58 46.19811
 2018-Oct-24 05:33  m  05 49 57.483422 +32 58 46.43492
 2018-Oct-24 05:34  m  05 49 57.568490 +32 58 46.67153
 2018-Oct-24 05:35  m  05 49 57.653532 +32 58 46.90795
 2018-Oct-24 05:36  m  05 49 57.738546 +32 58 47.14416
 2018-Oct-24 05:37  m  05 49 57.823535 +32 58 47.38017
 2018-Oct-24 05:38  m  05 49 57.908497 +32 58 47.61598
 2018-Oct-24 05:39  m  05 49 57.993432 +32 58 47.85158
 2018-Oct-24 05:40  m  05 49 58.078342 +32 58 48.08698
 2018-Oct-24 05:41  m  05 49 58.163225 +32 58 48.32218
 2018-Oct-24 05:42  m  05 49 58.248083 +32 58 48.55717
 2018-Oct-24 05:43  m  05 49 58.332914 +32 58 48.79196
 2018-Oct-24 05:44  m  05 49 58.417720 +32 58 49.02653
 2018-Oct-24 05:45  m  05 49 58.502501 +32 58 49.26090
 2018-Oct-24 05:46  m  05 49 58.587256 +32 58 49.49506
 2018-Oct-24 05:47  m  05 49 58.671986 +32 58 49.72901
 2018-Oct-24 05:48  m  05 49 58.756691 +32 58 49.96275
 2018-Oct-24 05:49  m  05 49 58.841371 +32 58 50.19628
 2018-Oct-24 05:50  m  05 49 58.926026 +32 58 50.42960
 2018-Oct-24 05:51  m  05 49 59.010656 +32 58 50.66271
 2018-Oct-24 05:52  m  05 49 59.095262 +32 58 50.89560
 2018-Oct-24 05:53  m  05 49 59.179843 +32 58 51.12828
 2018-Oct-24 05:54  m  05 49 59.264400 +32 58 51.36075
 2018-Oct-24 05:55  m  05 49 59.348933 +32 58 51.59300
 2018-Oct-24 05:56  m  05 49 59.433441 +32 58 51.82503
 2018-Oct-24 05:57  m  05 49 59.517926 +32 58 52.05685
 2018-Oct-24 05:58  m  05 49 59.602387 +32 58 52.28845
 2018-Oct-24 05:59  m  05 49 59.686824 +32 58 52.51983
 2018-Oct-24 06:00  m  05 49 59.771238 +32 58 52.75099
 2018-Oct-24 06:01  m  05 49 59.855628 +32 58 52.98194
 2018-Oct-24 06:02  m  05 49 59.939996 +32 58 53.21266
 2018-Oct-24 06:03  m  05 50 00.024340 +32 58 53.44316
 2018-Oct-24 06:04  m  05 50 00.108661 +32 58 53.67344
 2018-Oct-24 06:05  m  05 50 00.192959 +32 58 53.90350
 2018-Oct-24 06:06  m  05 50 00.277235 +32 58 54.13334
 2018-Oct-24 06:07  m  05 50 00.361488 +32 58 54.36295
 2018-Oct-24 06:08  m  05 50 00.445718 +32 58 54.59234
 2018-Oct-24 06:09  m  05 50 00.529927 +32 58 54.82150
 2018-Oct-24 06:10  m  05 50 00.614113 +32 58 55.05044
 2018-Oct-24 06:11  m  05 50 00.698277 +32 58 55.27915
 2018-Oct-24 06:12  m  05 50 00.782419 +32 58 55.50764
 2018-Oct-24 06:13  m  05 50 00.866540 +32 58 55.73589
 2018-Oct-24 06:14  m  05 50 00.950639 +32 58 55.96392
 2018-Oct-24 06:15  m  05 50 01.034717 +32 58 56.19172
 2018-Oct-24 06:16  m  05 50 01.118773 +32 58 56.41930
 2018-Oct-24 06:17  m  05 50 01.202809 +32 58 56.64664
 2018-Oct-24 06:18  m  05 50 01.286823 +32 58 56.87375
 2018-Oct-24 06:19  m  05 50 01.370817 +32 58 57.10063
 2018-Oct-24 06:20  m  05 50 01.454789 +32 58 57.32728
 2018-Oct-24 06:21  m  05 50 01.538742 +32 58 57.55369
 2018-Oct-24 06:22  m  05 50 01.622673 +32 58 57.77988
 2018-Oct-24 06:23  m  05 50 01.706585 +32 58 58.00582
 2018-Oct-24 06:24  m  05 50 01.790476 +32 58 58.23154
 2018-Oct-24 06:25  m  05 50 01.874348 +32 58 58.45702
 2018-Oct-24 06:26  m  05 50 01.958200 +32 58 58.68226
 2018-Oct-24 06:27  m  05 50 02.042032 +32 58 58.90727
 2018-Oct-24 06:28  m  05 50 02.125844 +32 58 59.13204
 2018-Oct-24 06:29  m  05 50 02.209637 +32 58 59.35658
 2018-Oct-24 06:30  m  05 50 02.293411 +32 58 59.58088
 2018-Oct-24 06:31  m  05 50 02.377166 +32 58 59.80494
 2018-Oct-24 06:32  m  05 50 02.460902 +32 59 00.02876
 2018-Oct-24 06:33  m  05 50 02.544619 +32 59 00.25234
 2018-Oct-24 06:34  m  05 50 02.628318 +32 59 00.47568
 2018-Oct-24 06:35  m  05 50 02.711998 +32 59 00.69878
 2018-Oct-24 06:36  m  05 50 02.795659 +32 59 00.92164
 2018-Oct-24 06:37  m  05 50 02.879303 +32 59 01.14426
 2018-Oct-24 06:38  m  05 50 02.962928 +32 59 01.36663
 2018-Oct-24 06:39  m  05 50 03.046536 +32 59 01.58877
 2018-Oct-24 06:40  m  05 50 03.130126 +32 59 01.81066
 2018-Oct-24 06:41  m  05 50 03.213698 +32 59 02.03230
 2018-Oct-24 06:42  m  05 50 03.297253 +32 59 02.25370
 2018-Oct-24 06:43  m  05 50 03.380791 +32 59 02.47486
 2018-Oct-24 06:44  m  05 50 03.464311 +32 59 02.69577
 2018-Oct-24 06:45  m  05 50 03.547815 +32 59 02.91644
 2018-Oct-24 06:46  m  05 50 03.631302 +32 59 03.13686
 2018-Oct-24 06:47  m  05 50 03.714772 +32 59 03.35704
 2018-Oct-24 06:48  m  05 50 03.798225 +32 59 03.57696
 2018-Oct-24 06:49  m  05 50 03.881663 +32 59 03.79664
 2018-Oct-24 06:50  m  05 50 03.965084 +32 59 04.01607
 2018-Oct-24 06:51  m  05 50 04.048489 +32 59 04.23526
 2018-Oct-24 06:52  m  05 50 04.131878 +32 59 04.45419
 2018-Oct-24 06:53  m  05 50 04.215252 +32 59 04.67287
 2018-Oct-24 06:54  m  05 50 04.298610 +32 59 04.89131
 2018-Oct-24 06:55  m  05 50 04.381952 +32 59 05.10949
 2018-Oct-24 06:56  m  05 50 04.465280 +32 59 05.32742
 2018-Oct-24 06:57  m  05 50 04.548592 +32 59 05.54511
 2018-Oct-24 06:58  m  05 50 04.631889 +32 59 05.76254
 2018-Oct-24 06:59  m  05 50 04.715172 +32 59 05.97971
 2018-Oct-24 07:00  m  05 50 04.798440 +32 59 06.19664
 2018-Oct-24 07:01  m  05 50 04.881694 +32 59 06.41331
 2018-Oct-24 07:02  m  05 50 04.964933 +32 59 06.62973
 2018-Oct-24 07:03  m  05 50 05.048158 +32 59 06.84589
 2018-Oct-24 07:04  m  05 50 05.131369 +32 59 07.06180
 2018-Oct-24 07:05  m  05 50 05.214566 +32 59 07.27746
 2018-Oct-24 07:06  m  05 50 05.297750 +32 59 07.49286
 2018-Oct-24 07:07  m  05 50 05.380920 +32 59 07.70801
 2018-Oct-24 07:08  m  05 50 05.464077 +32 59 07.92289
 2018-Oct-24 07:09  m  05 50 05.547221 +32 59 08.13753
 2018-Oct-24 07:10  m  05 50 05.630351 +32 59 08.35190
 2018-Oct-24 07:11  m  05 50 05.713469 +32 59 08.56602
 2018-Oct-24 07:12  m  05 50 05.796574 +32 59 08.77988
 2018-Oct-24 07:13  m  05 50 05.879667 +32 59 08.99349
 2018-Oct-24 07:14  m  05 50 05.962747 +32 59 09.20683
 2018-Oct-24 07:15  m  05 50 06.045815 +32 59 09.41992
 2018-Oct-24 07:16  m  05 50 06.128871 +32 59 09.63275
 2018-Oct-24 07:17  m  05 50 06.211915 +32 59 09.84532
 2018-Oct-24 07:18  m  05 50 06.294948 +32 59 10.05763
